[
{"id":"35","osbb_name":"ОСББ \"ЗУБРА ЛІСНА\"","city":"Пустомитівський р-н, с.Зубра","street":"вул. Лісна","house":"2Б","zip":"81135"},
{"id":"37","osbb_name":"\"СУПУТНИК-БІЛОГОРОДКА\"","city":"с. Білогородка","street":"вул. Зоряна","house":"27","zip":"08140"},
{"id":"152","osbb_name":"ОК \"ПРЕСТИЖ-БУД\"","city":"м. Мелітополь","street":"провулок Бадигіна","house":"1\/2","zip":"72311"},
{"id":"195","osbb_name":"ОСББ \"Будинок Модерн\"","city":"м. Мелітополь","street":"вул. Петра Дорошенко","house":"30\/1","zip":"72319"},
{"id":"309","osbb_name":"ОСББ \"Карпенка 22а\"","city":"м. Тернопіль","street":"вул. Карпенка","house":"22А","zip":"46018"},
{"id":"460","osbb_name":"ОСББ \"Гетьманський Двір 1223\"","city":"м. Львів","street":"вул.Гетьмана Мазепи","house":"12","zip":""},
{"id":"555539","osbb_name":"ОСББ \"Повітряна 92\"","city":"м. Львів","street":"вул. Повітряна","house":"92","zip":"79052"},
{"id":"555605","osbb_name":"ОСББ Електрон -Умань","city":"м. Умань ","street":"Горького ","house":"32\/6","zip":"20300"},
{"id":"555609","osbb_name":"ОСББ \"Кузьмінський\"","city":"м. КиЇв","street":"вул. Жамбила Жабаєва","house":"22","zip":"04112"},
{"id":"555616","osbb_name":"ОСББ \"Винники\"","city":"м.Винники","street":"вул.Винна Гора","house":"8а","zip":"79495"},
{"id":"555627","osbb_name":"ОСББ \"Хвильового 38\"","city":"м.Львів","street":"вул.Хвильового","house":"38","zip":"79059"},
{"id":"555628","osbb_name":"Аркада-Ковель","city":"м. Ковель","street":"вул. Кониського","house":"11","zip":"45000"},
{"id":"555663","osbb_name":"ОСББ \"ГАЗОВА 10\"","city":"м. Львів","street":"вул.Газова","house":"№ 10","zip":"79019"},
{"id":"555670","osbb_name":"ТОВ \"ЄВРО-ЖЕК\"","city":"м. Мелітополь","street":"вул. Інтеркультурна","house":"77\/4","zip":""},
{"id":"555681","osbb_name":"ОСББ \"Ворзель Парк 2\"","city":"смт.Ворзель","street":"вул.Кленова","house":"45а\/1","zip":"08296"},
{"id":"555686","osbb_name":"ОСББ \"Тичини-15\"","city":"м. Львів","street":"вул. Павла Тичини","house":"15","zip":"79068"},
{"id":"555698","osbb_name":"ТОВ \"Изатекс Индастри\"","city":"м. Мелітополь","street":"вул. Донцова","house":"Рефма ","zip":"72301"},
{"id":"555723","osbb_name":"ОСББ Дніпровська Рів'єра","city":"м.Київ","street":"вул.Центральна","house":"19","zip":"02132"},
{"id":"555734","osbb_name":"ОСББ \"Станіславського-10\"","city":"м. Полтава","street":"вул. Станіславського","house":"10","zip":"36023"},
{"id":"555741","osbb_name":"ОСББ Гагарінське-3","city":"м. Мелітополь","street":"вул. Гагаріна","house":"3","zip":"72316"},
{"id":"555766","osbb_name":"ОСББ \"Яблуневий-6\"","city":"с. Чубинське","street":"вул. Яблунева","house":"6","zip":"08321"},
{"id":"555768","osbb_name":"\"Озерне 23\"","city":"м. Ніжин","street":"вул. Озерна","house":"23","zip":"16600"},
{"id":"555770","osbb_name":"\"ПГС-ВЄГА\"","city":"м. Миколаїв","street":"пр-т Героїв України","house":"75-В","zip":"54025"},
{"id":"555772","osbb_name":"Територія ЗЕТ","city":"м. Київ","street":"вул. Зодчих","house":"30\/6","zip":"03194"},
{"id":"555773","osbb_name":"ОСББ \"Джона Ленона 37\"","city":"м. Львів","street":"вул. Джона Ленона","house":"37","zip":"79059"},
{"id":"555786","osbb_name":"\"Синяківське\"","city":"м. Ніжин","street":"вул. Синяківська","house":"75Г","zip":"16600"},
{"id":"555794","osbb_name":"ОСББ \"ПЕГАС-8\"","city":"м. Чернігів ","street":"вул. Шевчука ","house":"8","zip":"14008"},
{"id":"555801","osbb_name":"ОСББ ''НАДІЯ-100''","city":"м. Борислав","street":"вул. 600-річчя Борислава","house":"20","zip":"82300"},
{"id":"555810","osbb_name":"Хвильового,2","city":"м. Львів","street":"вул. Хвильового","house":"2","zip":"79068"},
{"id":"555834","osbb_name":"ОСББ \"Старобілоуська 47\"","city":"м. Чернігів ","street":"вул. Старобілоуська","house":"47","zip":"14017"},
{"id":"555839","osbb_name":"ОСББ \"Джона Ленона 35\"","city":"м. Львів","street":"вул. Джона Ленона","house":"35","zip":"79059"},
{"id":"555840","osbb_name":"ОСББ\"Ракета-Мелітополь\"","city":"м. Мелітополь","street":"б-р 30-річчя Перемоги","house":"23","zip":"72318"},
{"id":"555841","osbb_name":"ОСББ\"МРІЯ-33\"","city":"м. Мелітополь","street":"б-р 30-річчя Перемоги","house":"16","zip":"72318"},
{"id":"555846","osbb_name":"ОК \"СОНЯЧНИЙ ДВІР\"","city":"м. Мелітополь","street":"проспект 50-річча Перемоги","house":"26\/2","zip":"72313"},
{"id":"555850","osbb_name":"ОСББ \"Джона Ленона 39\"","city":"м. Львів","street":"вул. Джона Ленона","house":"39","zip":"79059"},
{"id":"555880","osbb_name":"ОСББ Східна 44","city":"м.Львів","street":"вул.Східна","house":"44","zip":""},
{"id":"555882","osbb_name":"ОСББ Корінна 3","city":"м.Львів","street":"вул.Корінна","house":"3","zip":"79019"},
{"id":"555886","osbb_name":"ОСББ Промінь","city":"м. Львів","street":"вул. Величковського","house":"34","zip":"79002"},
{"id":"555894","osbb_name":"ОСББ \"Володимирська 63Е\"","city":"м.Ужгород","street":"вул.Володимирська","house":"63E","zip":"88015"},
{"id":"555897","osbb_name":"Маршала Жукова 65 ","city":"м. Одеса","street":"проспект Маршала Жукова","house":"65","zip":"65114"},
{"id":"555898","osbb_name":"ОСББ \"ЛЕСІ 19\"","city":"с. Софіївська Борщагівка","street":"вул. Лесі Українки","house":"19","zip":"08138"},
{"id":"555903","osbb_name":" \"Авалон Лайт\"","city":"м. Львів","street":"вул. Гетьмана Мазепи","house":"2А","zip":"79068"},
{"id":"555919","osbb_name":"ТОВ Майстерпроект","city":"м.Київ","street":"вул.Липківського","house":"33А","zip":"03035"},
{"id":"555928","osbb_name":"ОСББ Широка 94","city":"м. Львів","street":"вул.Широка","house":"94 ","zip":"79052"},
{"id":"555929","osbb_name":"ОСББ Лідер 1","city":"м. Львів","street":"вул.Величковського","house":"30а","zip":"79002"},
{"id":"555930","osbb_name":"ОСББ Шевченка 42А","city":"м. Львів","street":"вул. Шевченка","house":"42А","zip":"79016"},
{"id":"555933","osbb_name":"ОСББ \"ЩАСЛИВИЙ 864\"","city":"м. Дніпро","street":"вул. Данили Нечая","house":"8","zip":"49007"},
{"id":"555947","osbb_name":"ОСББ Велика Британія","city":"м. Львів","street":"вул. Т.Шевченка","house":"17","zip":"79039"},
{"id":"555948","osbb_name":"ОСББ  Сусіди Олени Степанівни","city":"м. Львів","street":"вул. Олени Степанівни","house":"8","zip":"79016"},
{"id":"555949","osbb_name":"ОСББ Фортеця-44","city":"м. Львів","street":"вул. Величковського","house":"44","zip":""},
{"id":"555950","osbb_name":"ОСББ  Велич 2","city":"м. Львів","street":"вул. Величковського","house":"2","zip":"79002"},
{"id":"555951","osbb_name":"ОСББ Величковського 36","city":"м. Львів","street":"вул. Величковського","house":"36","zip":"79002"},
{"id":"555952","osbb_name":"ОСББ Рясне 16","city":"м. Львів","street":"вул. Величковського","house":"16","zip":"79002"},
{"id":"555954","osbb_name":"ОСББ ЖК  МАНХЕТТЕН","city":"м. Львів","street":"вул. Олени Степанівни","house":"10","zip":"79016"},
{"id":"555956","osbb_name":"ОСББ Фортеця Рясне","city":"м. Львів","street":"вул. Величковського","house":"52","zip":"79002"},
{"id":"555958","osbb_name":"ТОВ Майстерпроект (офіси)","city":"м.Київ","street":"вул.Липківського","house":"33А","zip":"03035"},
{"id":"555960","osbb_name":"ОСББ \"Форрест Ч\"","city":"Черкаси","street":"30-річчя Перемоги","house":"8\/7","zip":"18029"},
{"id":"555964","osbb_name":"ОСББ \"Мальва-10\"","city":"м. Ніжин","street":"вул. Академіка Амосова","house":"10","zip":"16600"},
{"id":"555979","osbb_name":"ОСББ \"КНЯЖИЙ 1\"","city":"м. Львів","street":"пл.Князя Святослава","house":"5","zip":"79016"},
{"id":"555982","osbb_name":"ОСББ \"Печерський будинок-2015\"","city":"м. Київ","street":"вул. Добровольчих батальйонів","house":"21","zip":"01015"},
{"id":"555988","osbb_name":"ПІВДЕННЕ-16","city":"м. Львів","street":"вул. Кульчицької","house":"16г","zip":"79054"},
{"id":"555990","osbb_name":"ОСББ \"Космос у Соборному\"","city":"м. Дніпро","street":"просп. Гагаріна","house":"169 корп.1","zip":"49107"},
{"id":"555991","osbb_name":"ОСББ Парус","city":"м.Дніпро","street":"вул.Котляревського","house":"7А","zip":"49081"},
{"id":"555994","osbb_name":" ОСББ \" А.Лінкольна № 29 \"","city":"м. Львів","street":"вул. Лінкольна","house":"29","zip":"79068"},
{"id":"556017","osbb_name":" ОСББ \"ТИЧИНИ-21\"","city":"м. Львів","street":"вул. Тичини","house":"21","zip":""},
{"id":"556018","osbb_name":"ОСББ \" МАЗЕПИ, 15 \"","city":"м. Львів","street":"вул. Мазепи","house":"15","zip":"79068"},
{"id":"556025","osbb_name":"ОСББ \"Кристал 2\"","city":"м. Запоріжжя","street":"вул. Магара","house":"4","zip":"69059"},
{"id":"556030","osbb_name":"\" ОСББ Грецька 45 \"","city":"м. Одеса","street":"вул. Грецька","house":"45","zip":"65026"},
{"id":"556040","osbb_name":"ОК \"Континент\"","city":"с.Ременів","street":"вул.Куземського","house":"1","zip":"80460"},
{"id":"556041","osbb_name":"Головатого 77Б","city":"м.Бориспіль","street":"вул.Головатого ","house":"77б","zip":"08304"},
{"id":"556043","osbb_name":"Надія Вікторія","city":"м.Мукачево","street":"вул.Окружна","house":"24","zip":"89600"},
{"id":"556063","osbb_name":"ОСББ \"КОНОВАЛЬЦЯ 17\/2\"","city":"м. Дрогобич","street":"вул. Є.Коновальця","house":"17\/2","zip":"82106"},
{"id":"556090","osbb_name":"ОСББ ЗАТИШОК 50\/1","city":"м. Львів","street":"вул. Величковського","house":"50\/1","zip":"79002"},
{"id":"556093","osbb_name":"ЛЬВІВСЬКЕ-33 ПЛЮС","city":"м. Львів, смт.Брюховичі","street":"вул. Львівська","house":"27","zip":"79491"},
{"id":"556094","osbb_name":"ОСББ \"РАУНД КЛУБ\"","city":"с. Бірки","street":"вул. Янівська","house":"124 ","zip":"81092"},
{"id":"556096","osbb_name":"ОСББ\"Центральний 4\"","city":"с. Солонка","street":"вул. Центральна ","house":"4","zip":"81131"},
{"id":"556097","osbb_name":"\"СТЕПАНСЬКЕ\"","city":"м. Костопіль","street":"вул. Степанська","house":"16","zip":"35000"},
{"id":"556104","osbb_name":"ОСББ \"Мучна 16\"","city":"м. Львів","street":"вул. Мучна","house":"16","zip":"79014"},
{"id":"556107","osbb_name":"Селянська 12","city":"м. Львів","street":"вул. Селянська","house":"12","zip":"79059"},
{"id":"556114","osbb_name":"ОСББ \"Затишок Галицький\"","city":"м. Львів","street":"вул. Свенціцького","house":"18","zip":"79011"},
{"id":"556115","osbb_name":"ОСББ \"Райдужна\"","city":"м. Львів","street":"вул. Райдужна","house":"23","zip":"79066"},
{"id":"556117","osbb_name":"ОСББ \"Залізні Води\"","city":"м. Львів","street":"вул. Стуса","house":"14","zip":"79011"},
{"id":"556119","osbb_name":"ОСББ \"Кольберг Комфорт\"","city":"м. Львів","street":"вул. Кольберга О.","house":"3А","zip":"79013"},
{"id":"556124","osbb_name":"ОСББ \"Масарика-3\"","city":"м. Львів","street":"вул. Масарика","house":"3","zip":""},
{"id":"556126","osbb_name":"ОСББ \"ПОТІЧОК 1\"","city":"смт. Брюховичі","street":"вул. Потічок","house":"1","zip":"79491"},
{"id":"556130","osbb_name":"ОСББ \"Закревського 47А\"","city":"м. Київ","street":"вул. Закревського Миколи","house":"47А","zip":"02222"},
{"id":"556134","osbb_name":"ОСББ \"Тустань 108\/2\"","city":"м. Дрогобич","street":"вул. Самбірська","house":"108\/2","zip":"82100"},
{"id":"556186","osbb_name":"ОК\"ІДЕАЛ-84\"","city":"м. Мелитополь","street":"вул. Университетская","house":"84","zip":"72319"},
{"id":"556200","osbb_name":"ОСББ ЗЕЛЕНИЙ ДВІР - РЯСНЕ 2","city":"м. Львів","street":"вул. Величковського","house":"70А","zip":"79002"},
{"id":"556205","osbb_name":"ІМЕНІ ІВАНА БОГУНА","city":"м. Броди","street":"вул. Івана Богуна","house":"76","zip":"80600"},
{"id":"556220","osbb_name":"ОСББ \"ПОДІЛ ПЛАЗА\"","city":"м. Київ","street":"вул. Глибочицька (Секція 3)","house":"73","zip":"04052"},
{"id":"556221","osbb_name":"ОСББ\"Світанок Мелітополя\"","city":"м. Мелітополь","street":"вул. Гризодубової","house":"50","zip":"72313"},
{"id":"556222","osbb_name":"Шевченка-19 ОСББ","city":"м. Львів","street":"вул. Шевченка","house":"19","zip":"79033"},
{"id":"556226","osbb_name":"ОСББ \"АВАЛОН ГАРДЕН 2\"","city":"м. Львів","street":"вул. Порохова","house":"20Б","zip":"79015"},
{"id":"556227","osbb_name":"ОСББ \"ОСЕЛЯ НА ГРІНЧЕНКА\"","city":"м. Львів","street":"вул. Грінченка","house":"6","zip":"79037"},
{"id":"556230","osbb_name":"ОСББ БРЮХОВИЦЬКА ПАНОРАМА","city":"смт. Брюховичі","street":"вул. Незалежності України","house":"25","zip":"79491"},
{"id":"556231","osbb_name":"\"ПЕРЕМОГА-30\"","city":"м. Малин","street":"вул. 30р.Перемоги","house":"15","zip":"11601"},
{"id":"556233","osbb_name":"Весела оселя 33","city":"м. Львів","street":"вул. Патона","house":"33","zip":"79040"},
{"id":"556234","osbb_name":"ОСББ\"Наша оселя-2\"","city":"м. Броди","street":"вул. Героїв Авіаторів","house":"2","zip":"80600"},
{"id":"556241","osbb_name":"ОСББ \"МАТРОСОВА 21\"","city":"м. Ірпінь","street":"вул. Матросова","house":"19-Б","zip":"08200"},
{"id":"556278","osbb_name":"ОСББ Минайська 12","city":"м.Ужгород","street":"вул.Минайська","house":"12","zip":"88000"},
{"id":"556301","osbb_name":"ОСББ \"Затишне 35\"","city":"м. Львів","street":"вул. Ак. Патона","house":"35","zip":"79040"},
{"id":"556317","osbb_name":"ЖБК \"Будівельник-9\"","city":"м.Київ ","street":"вул. Декабристів","house":"10 А","zip":"02121"},
{"id":"556319","osbb_name":"ОСББ \"Патона 2\/6\"","city":"м. Львів","street":"вул. Патона","house":"2\/6","zip":"79040"},
{"id":"556325","osbb_name":"ОСББ Новий будинок","city":"м.Одеса","street":"вул. Ак.Заболотного","house":"58","zip":"65123"},
{"id":"556332","osbb_name":"Ворзель парк-3","city":"смт. Ворзель","street":"вул. Кленова","house":"45-а\/2","zip":"08296"},
{"id":"556344","osbb_name":"5 Авеню Городницька 47г","city":"м. Львів","street":"вул. Городницька","house":"47г","zip":"79019"},
{"id":"556346","osbb_name":"ОСББ \"Суворов 1-О\"","city":"м. Ірпінь","street":"вул. Виговського","house":"1-О","zip":"08200"},
{"id":"556348","osbb_name":"Стрийська 81","city":"м. Львів","street":"вул. Стрийська","house":"81","zip":"79031"},
{"id":"556350","osbb_name":"ОСББ \"Угорська 14Г\"","city":"м. Львів","street":"вул. Угорська","house":"14Г","zip":"79034"},
{"id":"556357","osbb_name":"ОК ЖБК \"Октава-5\"","city":"м. Київ","street":"вул. Милославська","house":"37","zip":"02097"},
{"id":"556359","osbb_name":"ЖБК \"Суворовський-6\"","city":"м. Одеса","street":"Дніпропетровська дорога","house":"111","zip":"65123"},
{"id":"556360","osbb_name":"ОСББ \"НОВИЙ БУДИНОК\"","city":"м. Одеса","street":"вул. Ак. Заболотного (паркінг)","house":"58","zip":"65123"},
{"id":"556362","osbb_name":"Британія-3 ОСББ","city":"м.Львів","street":"вул. Шевченка","house":"21","zip":"79033"},
{"id":"556363","osbb_name":"Британія-4 ОСББ","city":"м.Львів","street":"вул. Шевченка","house":"25","zip":"79033"},
{"id":"556367","osbb_name":"ОСББ \"Старий Дім\"","city":"м. Чортків","street":"вул. Шевченка","house":"20-28","zip":"48501"},
{"id":"556374","osbb_name":"ОК \"Панська гора\"","city":"с.Сокільники Пустомитівський р-н","street":"вул.Панська гора","house":"1А","zip":"81130"},
{"id":"556375","osbb_name":"ЖБК \"ПРОМБУДІВЕЛЬНИК-6\"","city":"м. Київ","street":"вул. Декабристів","house":"5-А","zip":"02121"},
{"id":"556386","osbb_name":"ОСББ \"ЖК Білий Шоколад\"","city":"м. Львів","street":"вул. Під Голоском","house":"24","zip":"79020"},
{"id":"556388","osbb_name":"ОСББ\" ВАТУТИНЕЦЬ-1\"","city":"м. Полтава","street":"вул. Чорновола","house":"2Б","zip":"36003"},
{"id":"556394","osbb_name":"Об\"єднання співвласників багатоквартирного будинку","city":"м. Одесса","street":"вул. Невського","house":"43\/3","zip":"65088"},
{"id":"556405","osbb_name":"ОСББ \"ВІРМЕНСЬКА 5\"","city":"м. Київ","street":"вул. Вірменська","house":"5","zip":"02121"},
{"id":"556406","osbb_name":"ОСББ \"Тріумф-Розділ\"","city":"м. Новий Розділ","street":"вул. Шевченка","house":"31А","zip":"81652"},
{"id":"556412","osbb_name":"ОСББ \"РОКСОЛЯНИ-21\"","city":"м. Львів","street":"вул. Роксоляни","house":"21","zip":"79052"},
{"id":"556419","osbb_name":"Львів-Стрийська\/115Д","city":"м. Львів","street":"вул. Стрийська","house":"115Д","zip":"79045"},
{"id":"556426","osbb_name":"ОСББ «Планета 44»","city":"м. Одеса","street":"вул. Генерала Бочарова","house":"44","zip":"65111"},
{"id":"556429","osbb_name":"ОСББ \"Суворовський-54В\"","city":"с. Крижанівка","street":"вул. Бочарова генерала","house":"54","zip":"65086"},
{"id":"556431","osbb_name":"ЖБК \"Ленінський-28\"","city":"м. Одеса","street":"вул. Генерала Бочарова","house":"32","zip":"65111"},
{"id":"556434","osbb_name":"ПАРКОВИЙ КВАРТАЛ - 1","city":"м. Ковель","street":"вул. Глібова","house":"буд. 8Б","zip":"45000"},
{"id":"556458","osbb_name":"ОСББ \"Кольоровий\"","city":"с. Білогородка","street":"вул. Європейська","house":"6Б","zip":"08140"},
{"id":"556463","osbb_name":"ОСББ \"ПРИКАРПАТТЯ\"","city":"м. Коломия","street":"проспект Михайла Грушевського","house":"82","zip":"78203"},
{"id":"556466","osbb_name":"ОСББ \"СІЧ-28\"","city":"м. Коломия","street":"вул. Січових Стрільців","house":"28","zip":"78200"},
{"id":"556468","osbb_name":"Центроліт","city":"м. Одеса","street":"вул. Махачкалинська","house":"1А","zip":"65111"},
{"id":"556473","osbb_name":"ЖБК 267","city":"м. Дніпро","street":"вул. Максима Дія","house":"8","zip":"49000"},
{"id":"556480","osbb_name":"ОСББ \"Героїв Крут 1- Сокільники\"","city":"с. Сокільники","street":"вул. Героїв Крут","house":"1\/1","zip":"81130"},
{"id":"556486","osbb_name":"5 Авеню Львів","city":"м. Львів","street":"вул. Городницька","house":"47б","zip":"79019"},
{"id":"556487","osbb_name":"ЖБК 74","city":"м. Львів","street":"вул. Виговського","house":"41","zip":"79054"},
{"id":"556491","osbb_name":"Бриз-7","city":"с. Лиманка","street":"вул. Сьома","house":"7","zip":"65037"},
{"id":"556493","osbb_name":"ГО Обєднання інвесторів  ЖК 5 Авеню у м. Львові","city":"м. Львів","street":"вул. Городницька","house":"47\/ 7 секція","zip":"79000"},
{"id":"556496","osbb_name":"Павлова 2, Волноваха","city":"м. Волноваха","street":"вул. Павлова","house":"2","zip":"85700"},
{"id":"556500","osbb_name":"ОСББ \"Левандівський дім\"","city":"м. Львів","street":"вул. Роксоляни","house":"43Б","zip":"79052"},
{"id":"556508","osbb_name":"ОСББ <<ВЧИТЕЛЬ>>","city":"м. Львів","street":"вул. Кастелівка","house":"20","zip":"79013"},
{"id":"556517","osbb_name":"ОК \"ЖБК № 268\"","city":"м. Дніпро","street":"вул. Максима Дія","house":"8","zip":"49128"},
{"id":"556518","osbb_name":"ОСББ \"Боровиковського 4\"","city":"м. Полтава","street":"бул. Боровиковського","house":"4","zip":"36019"},
{"id":"556529","osbb_name":"ОСББ\"Повітряна-94\"","city":"м. Львів","street":"вул. Повітряна","house":"94","zip":"79052"},
{"id":"556535","osbb_name":"ОСББ \"СІЧ-ЗАХІД\"","city":"м. Коломия","street":"вул. Січових Стрільців","house":"72","zip":"78203"},
{"id":"556537","osbb_name":" ОСББ \"ФАЙНОБУД-ЗАХІД\"","city":"м. Коломия","street":"вул. Січових Стрільців","house":"70","zip":"78203"},
{"id":"556538","osbb_name":"ОСББ \"ЖК Білий Шоколад\" (газ)","city":"м. Львів","street":"вул. Під Голоском","house":"24","zip":"79020"},
{"id":"556542","osbb_name":"ЖБК \"Мебельщик-2\"","city":"м. Київ","street":"вул. Вербицького","house":"24","zip":"02121"},
{"id":"556548","osbb_name":"ОСББ \"Наша оселя 9\"","city":"м. Самбір","street":"вул. Чайковського","house":"9","zip":"81400"},
{"id":"556555","osbb_name":"ОСББ \"Комунаровець№5\"","city":"м. Запоріжжя","street":"вул. Чумаченка","house":"8","zip":"69059"},
{"id":"556558","osbb_name":"Зоряне 89","city":"м. Олександрія","street":"пл. Покровська","house":"7б","zip":"28001"},
{"id":"556560","osbb_name":"ОСББ \"ДАВИДІВ-2016\"","city":"село Давидів","street":"вул. Галицька","house":"28","zip":"81151"},
{"id":"556562","osbb_name":"Відінська 29","city":"м. Рівне","street":"вул. Відінська","house":"29","zip":"33018"},
{"id":"556563","osbb_name":"ОСББ \"СІМЕЙНЕ\"","city":"м. Винники","street":"вул. Кільцева","house":"2А","zip":"79495"},
{"id":"556575","osbb_name":"ОСББ \"ПАРКОВИЙ ПОЛТАВА\"","city":"м. Полтава","street":"пр. Першотравневий","house":"18А","zip":"36011"},
{"id":"556584","osbb_name":"ОСББ \"Процвітання\"","city":"м. Одеса","street":"вул. Сергія Ядова","house":"16-б","zip":"65031"},
{"id":"556585","osbb_name":"ОСББ \"Сальвія\"","city":"м. Львів","street":"вул. Довженка","house":"20","zip":"79070"},
{"id":"556587","osbb_name":"ОСББ \"О.БІДНОГО №18\"","city":"м. Полтава","street":"вул. Олександра Бідного","house":"18","zip":"36004"},
{"id":"556594","osbb_name":"ОСББ \"СТАНІСЛАВСЬКОГО 8\"","city":"м. Полтава","street":"вул. Станіславського","house":"8","zip":"36023"},
{"id":"556595","osbb_name":"осбб варіант","city":"с. Українка , Київська обл.","street":"проспект Дніпровський","house":"21-А","zip":"08720"},
{"id":"556602","osbb_name":"ОСББ \"ПАРК ІНН\"","city":"м. Львів","street":"вул. Ярославенка","house":"17А","zip":"79011"},
{"id":"556607","osbb_name":"ЖБК \"ЖОВТЕНЬ\"","city":"м. Київ","street":"вул. Щербаківського Данила","house":"57В","zip":"04128"},
{"id":"556609","osbb_name":"ОСББ \"Львівський замок\"","city":"м. Львів","street":"вул. Хмельницького Б.","house":"76","zip":"79019"},
{"id":"556610","osbb_name":"ОСББ \"ХРИЗОЛІТ 5\"","city":"м. Коломия","street":"вул. Яворницького","house":"5","zip":"78203"},
{"id":"556614","osbb_name":"Нова Європа 43","city":"с. Ілічанка","street":"вул. Шкільна","house":"43","zip":"67582"},
{"id":"556617","osbb_name":"Квартал Мазепи","city":"с. Чагор","street":"вул. Івана Мазепи","house":"10","zip":"60412"},
{"id":"556623","osbb_name":"ОСББ \"БОЛГАРИ\"","city":"м. Новоград-Волинський ","street":"Леваневського","house":"24","zip":"11700"},
{"id":"556630","osbb_name":"ФОП Левченко С.Л.","city":"м. Мелитополь","street":"вул. Университетская","house":"84","zip":""},
{"id":"556634","osbb_name":"ОСББ \"ТЕАТРАЛЬНА 46\"","city":"м. Коломия","street":"вул. Театральна","house":"46","zip":"78203"},
{"id":"556637","osbb_name":"ОСББ \"Вернадського 2\"","city":"м. Біла Церква","street":"вул. Вернадського","house":"2","zip":"09106"},
{"id":"556640","osbb_name":"ОССБ \"Ріо-31\"","city":"м.Борислав","street":"Володимира Великого","house":"31","zip":"82300"},
{"id":"556641","osbb_name":"ОСББ \"Патона 2\/6\" (Е)","city":"м. Львів","street":"вул. Патона","house":"2\/6","zip":"79040"},
{"id":"556642","osbb_name":"23 серпня 32","city":"м. Харків","street":"вул. Новгородська","house":"10","zip":"61145"},
{"id":"556643","osbb_name":"ОСББ \"Дніпровські зорі\"","city":"м. Павлоград","street":"вул. Дніпровська","house":"344а","zip":"51408"},
{"id":"556645","osbb_name":"ОСББ \"Сухомлинського 18\"","city":"м. Винники","street":"вул. Сухомлинського","house":"18","zip":"79495"},
{"id":"556646","osbb_name":"ОСББ \"Сахарова 31\"","city":"м. Львів","street":"Сахарова","house":"31","zip":"79044"},
{"id":"556647","osbb_name":"ОСББ ФАВОРИТ-Г.12\/6","city":"м. Чернігів","street":"1-ї Гвардійської армії ","house":"12\/6","zip":"14005"},
{"id":"556649","osbb_name":"ОК \"ПРЕСТИЖ-БУД\" (2022)","city":"м. Мелітополь","street":"провулок Бадигіна","house":"1\/2","zip":"72311"},
{"id":"556651","osbb_name":"ОСББ 'Сяйво13\"","city":"м. Львів","street":"вул. Сяйво","house":"13","zip":"79052"},
{"id":"556652","osbb_name":"Будинок №16 по вулиці Незалежності","city":"м. Ніжин","street":"вул. Незалежності","house":"16","zip":"16600"},
{"id":"556656","osbb_name":"ОСББ \"ЛЮКСЕМБУРГ\"","city":"м. Львів","street":"вул. Ярославенка","house":"32","zip":"79026"},
{"id":"556661","osbb_name":"Ягідна 21","city":"с. Софіївська Борщагівка","street":"вул. Ягідна","house":"21","zip":"08131"},
{"id":"556665","osbb_name":"ОСББ \"Левандівський Дворик\"","city":"м. Львів","street":"вул. Роксоляни","house":"87","zip":"79052"},
{"id":"556667","osbb_name":"ОСББ \"СЯЙВО-19\"","city":"м. Львів","street":"вул. Сяйво","house":"19","zip":"79052"},
{"id":"556668","osbb_name":"ОСББ \"СОНЯШНИК НА ЧУПРИНКИ\"","city":"м. Львів","street":"вул. Генерала Чупринки","house":"119","zip":"79057"},
{"id":"556669","osbb_name":"ОСББ \"МЕТАЛІСТІВ,9\"","city":"м. Львів","street":"вул. Металістів","house":"9","zip":"79056"},
{"id":"556670","osbb_name":"ОСНБК \"Богдана Хмельницького,6\"","city":"м. ТЕРНОПІЛЬ","street":"вул. БОГДАНА ХМЕЛЬНИЦЬКОГО","house":"6","zip":"46000"},
{"id":"556672","osbb_name":"ОСББ \"МАЛЬВА\" (ДЕУ-5)","city":"смт. Івано-Франкове","street":"вул. Яворівська","house":"41","zip":"81070"},
{"id":"556681","osbb_name":"Тячів-Центр","city":"м. Тячів","street":"вул. Незалежності","house":"14","zip":"90500"},
{"id":"556683","osbb_name":"ТОВ СД СЕРВІС","city":"с. Софіївська Борщагівка","street":"вул. Травнева","house":"59","zip":"08131"},
{"id":"556688","osbb_name":"ОСББ \"ЗЛАГОДА-12М\"","city":"м. Львів","street":"вул. Моршинська","house":"12","zip":"79044"},
{"id":"556689","osbb_name":"ОСББ \"ЛЮКС ПЛЮС\"","city":"м. Львів","street":"вул. Некрасова","house":"35В","zip":"79014"},
{"id":"556690","osbb_name":"ОСББ \"НА ІВАСЮКА 35\"","city":"м. Винники","street":"вул. Івасюка","house":"35","zip":"79495"},
{"id":"556691","osbb_name":"Парус-49","city":"м. Київ","street":"вул. Харківське шосе","house":"49","zip":"02175"},
{"id":"556692","osbb_name":"ОСББ \"ВОЛОДАР ГОРИ\"","city":"м. Винники","street":"вул. Винна гора","house":"10","zip":"79495"},
{"id":"556697","osbb_name":"ОСББ \"ХМЕЛЬНИЦЬКОГО 241\"","city":"м. Львів","street":"вул. Хмельницького","house":"241","zip":"79037"},
{"id":"556698","osbb_name":"ЖБК \"Приморский-17\"","city":"м. Одеса","street":"вул. Академіка  Корольова","house":"72","zip":"65104"},
{"id":"556700","osbb_name":"ОСББ \"Профспілковий-64\"","city":"м. Харків","street":"вул. Профспілковий бульвар","house":"64","zip":"61039"},
{"id":"556711","osbb_name":"ОСББ «КУЛЬТУРИ 22Б»","city":"м. Харків","street":"вул. Культури","house":"22Б","zip":"61058"},
{"id":"556712","osbb_name":"ОСББ \"ПЕРЛИНА МОСТИЩИНИ\"","city":"м. Мостиська","street":"вул. Ярослава Мудрого","house":"62А","zip":"81300"},
{"id":"556715","osbb_name":"ОСББ \"Рів'єра-3\"","city":"м. Київ","street":"вул. Центральна","house":"19, корпус 2","zip":"02132"},
{"id":"556716","osbb_name":"БІЛІ ГОЛУБИ","city":"м. Броди","street":"вул. Богуна","house":"60","zip":"80600"},
{"id":"556718","osbb_name":"ОСББ\"НАШ РІДНИЙ ДІМ\"","city":"м. Львів","street":"вул. Вагонна","house":"7","zip":"79054"},
{"id":"556719","osbb_name":"ОСББ \"Сонячна околиця\"","city":"м. Київ","street":"вул. Кошиця","house":"7А","zip":"02068"},
{"id":"556720","osbb_name":"ОСББ \"ПРИМОРСЬКЕ\"","city":"м. Южне","street":"вул. Приморська","house":"17","zip":"65481"},
{"id":"556724","osbb_name":"ОСББ ЖК МАНХЕТТЕН (паркінг)","city":"м. Львів","street":"вул. Олени Степанівни","house":"10","zip":"79016"},
{"id":"556729","osbb_name":"ОСББ \"Леонтовича 6 Об'єднана\"","city":"м. Коломия","street":"Леонтовича","house":"6","zip":"78200"},
{"id":"556730","osbb_name":"ОСББ \"Миколи Леонтовича, 8\"","city":"м. Коломия","street":"вул. Леонтовича","house":"8","zip":"78202"},
{"id":"556731","osbb_name":"ОСББ \"Манастирського-4\"","city":"м. Львів","street":"вул. Манастирського","house":"4","zip":"79066"},
{"id":"556732","osbb_name":"ТОВ \"ІНВЕСТ ХОЛДИНГ ЮГ\"","city":"с. Лиманка","street":"вул. Гранітна","house":"1","zip":""},
{"id":"556744","osbb_name":"ЖБК \"Будматеріали-3\"","city":"м. Киів","street":"вул. Ревуцького","house":"29А","zip":"02068"},
{"id":"556753","osbb_name":"ОСББ «На Китайській»","city":"м. Львів","street":"вул. Китайська","house":"3А","zip":"79038"},
{"id":"556754","osbb_name":"ОСББ «Новий день»","city":"м. Львів","street":"вул. Китайська","house":"4","zip":"79038"},
{"id":"556756","osbb_name":"ОСББ \"Манастирського-4\" (паркінг)","city":"м. Львів","street":"вул. Манастирського","house":"4 (паркінг)","zip":"79066"}
]